{"type": "FeatureCollection", "features": [{"type": "Feature", "geometry": {"type": "Point", "coordinates": [-122.69695755214222, 37.757718482406794]}, "properties": {"camera_id": "demo_1", "county_fips": "06075", "source": "synthetic_demo", "surveillance:type": "ALPR"}}, {"type": "Feature", "geometry": {"type": "Point", "coordinates": [-122.69295755214222, 37.763718482406794]}, "properties": {"camera_id": "demo_2", "county_fips": "06075", "source": "synthetic_demo", "surveillance:type": "ALPR"}}, {"type": "Feature", "geometry": {"type": "Point", "coordinates": [-122.68895755214223, 37.7587184824068]}, "properties": {"camera_id": "demo_3", "county_fips": "06075", "source": "synthetic_demo", "surveillance:type": "ALPR"}}]}